TISAT 1                 
1 36799U 10035E   26068.75703561  .00024554  00000+0  91005-3 0  9996
2 36799  98.0645   6.8512 0001343 159.3030 200.8262 15.27628633852505
STARLINK-32789          
1 62529U 25004U   26068.46939785  .00033320  00000+0  12142-2 0  9990
2 62529  43.0007 221.2201 0000483 304.5289  55.5517 15.27598741 66421
